INTELSAT 902 (IS-902)   
1 26900U 01039A   26167.03331302 -.00000287  00000+0  00000+0 0  9993
2 26900   6.1143  71.7985 0004473   9.6249 144.7701  1.00270396 90684
INTELSAT 904 (IS-904)   
1 27380U 02007A   26167.10827036 -.00000231  00000+0  00000+0 0  9993
2 27380   6.9177  69.1973 0006477   4.5739 198.0962  1.00270758 51752
DIRECTV 5 (TEMPO 1)     
1 27426U 02023A   26166.66498483 -.00000059  00000+0  00000+0 0  9990
2 27426   4.8742  75.3290 0003243  23.3873 294.5201  1.00271501 88109
INTELSAT 905 (IS-905)   
1 27438U 02027A   26167.15646671  .00000089  00000+0  00000+0 0  9998
2 27438   6.7514  69.8123 0003752  20.3512  93.3755  1.00271027 51354
GALAXY 3C (G-3C)        
1 27445U 02030A   26167.20524480 -.00000155  00000+0  00000+0 0  9994
2 27445   3.7295  77.9901 0001551  32.3050 133.2202  1.00271041 46489
INTELSAT 906 (IS-906)   
1 27513U 02041A   26167.17525350  .00000008  00000+0  00000+0 0  9991
2 27513   5.8002  72.9349 0004607   6.1806 312.5671  1.00272749 87010
GALAXY 13 (HORIZONS-1)  
1 27954U 03044A   26167.22610641  .00000131  00000+0  00000+0 0  9995
2 27954   1.4169  83.8779 0002275 351.6965 120.3111  1.00270589 46565
INTELSAT 10-02          
1 28358U 04022A   26166.68656492 -.00000009  00000+0  00000+0 0  9999
2 28358   0.0116 317.0110 0000298 255.8494 297.2601  1.00272857 80541
DIRECTV 8               
1 28659U 05019A   26167.17336506  .00000001  00000+0  00000+0 0  9997
2 28659   0.0180 327.5502 0002779 121.9403 118.3123  1.00271639 77068
GALAXY 28 (G-28)        
1 28702U 05022A   26167.10913703 -.00000203  00000+0  00000+0 0  9998
2 28702   3.2959  78.9474 0002876   5.8042 191.8189  1.00270791 51965
GALAXY 16 (G-16)        
1 29236U 06023A   26167.20878065 -.00000127  00000+0  00000+0 0  9990
2 29236   0.0085 291.2106 0002479 165.3557 144.0627  1.00270267 72965
DIRECTV 9S              
1 29494U 06043A   26167.20878065 -.00000115  00000+0  00000+0 0  9995
2 29494   2.4187  80.9138 0004864  12.2601 145.2749  1.00270821 51374
GALAXY 17 (G-17)        
1 31307U 07016B   26166.38473480 -.00000205  00000+0  00000+0 0  9992
2 31307   2.9676  79.9207 0004410  19.1380 218.0942  1.00269116 69783
INTELSAT 11 (IS-11)     
1 32253U 07044B   26166.78417049 -.00000265  00000+0  00000+0 0  9993
2 32253   3.5621  78.6853 0002278  91.1152 148.5980  0.99051419 68433
HORIZONS-2              
1 32388U 07063B   26167.19767116 -.00000255  00000+0  00000+0 0  9991
2 32388   2.6000  80.6381 0003731   1.6823 179.5089  1.00268734 67805
DIRECTV 11              
1 32729U 08013A   26165.95419218 -.00000120  00000+0  00000+0 0  9996
2 32729   0.0094 269.4466 0000494  94.4042 143.7272  1.00270145 45572
GALAXY 18 (G-18)        
1 32951U 08024A   26167.18331199  .00000025  00000+0  00000+0 0  9996
2 32951   0.0177  19.3438 0002700  65.7120 122.3915  1.00272086 45845
INTELSAT 25 (IS-25)     
1 33153U 08034A   26167.01067502 -.00000243  00000+0  00000+0 0  9991
2 33153   2.7072  80.3855 0003241  60.4094 254.2256  0.99035323 65671
GALAXY 19 (G-19)        
1 33376U 08045A   26167.20878065 -.00000139  00000+0  00000+0 0  9999
2 33376   0.0387 264.3579 0002428 183.6423 154.6477  1.00271236 64894
FM-5                    
1 35493U 09034A   26165.81425551 -.00000194  00000+0  00000+0 0  9994
2 35493   0.0205 292.4193 0001018  18.8658 158.8044  1.00269724 46628
INTELSAT 14 (IS-14)     
1 36097U 09064A   26167.10556831 -.00000273  00000+0  00000+0 0  9996
2 36097   0.0204 295.7946 0002173 142.2349 179.3622  1.00270453 60595
INTELSAT 15 (IS-15)     
1 36106U 09067A   26167.06009698 -.00000185  00000+0  00000+0 0  9991
2 36106   0.0149 305.8085 0002018 142.0585 283.2481  1.00270437 41217
DIRECTV 12              
1 36131U 09075A   26166.45252497 -.00000101  00000+0  00000+0 0  9995
2 36131   0.0233 154.0951 0000337 245.9985 283.8318  1.00272221 46532
INTELSAT 16 (IS-16)     
1 36397U 10006A   26167.22625446 -.00000245  00000+0  00000+0 0  9998
2 36397   0.0172 309.0556 0001941 156.6790 164.0058  1.00269256 59646
XM-5                    
1 37185U 10053A   26166.01642035 -.00000018  00000+0  00000+0 0  9993
2 37185   0.0647 273.1886 0002890 289.1857 311.6507  1.00271028 57463
INTELSAT 17 (IS-17)     
1 37238U 10065B   26167.12759711 -.00000002  00000+0  00000+0 0  9991
2 37238   0.0074 290.5654 0002584 163.7072 282.0576  1.00271508 53239
INTELSAT 28 (IS-28)     
1 37392U 11016A   26167.03696410 -.00000226  00000+0  00000+0 0  9993
2 37392   1.8037  82.6352 0003599   6.5458 156.7215  1.00269898 53272
INTELSAT 18 (IS-18)     
1 37834U 11056A   26166.98864153  .00000053  00000+0  00000+0 0  9999
2 37834   0.0146 311.6826 0001541 131.0190 357.4710  1.00271266 53809
INTELSAT 22 (IS-22)     
1 38098U 12011A   26167.17177858 -.00000059  00000+0  00000+0 0  9992
2 38098   0.0151 101.2840 0001574 359.6025 297.4860  1.00272394  7179
INTELSAT 19 (IS-19)     
1 38356U 12030A   26167.02405919 -.00000056  00000+0  00000+0 0  9993
2 38356   0.0172 357.3282 0002807  96.0863 345.5404  1.00270907 50439
INTELSAT 20 (IS-20)     
1 38740U 12043A   26166.91422740 -.00000023  00000+0  00000+0 0  9996
2 38740   0.0034  29.8738 0001596 147.3641 124.5854  1.00270577 50738
