OBJECT_NAME,OBJECT_ID,EPOCH,MEAN_MOTION,ECCENTRICITY,INCLINATION,RA_OF_ASC_NODE,ARG_OF_PERICENTER,MEAN_ANOMALY,EPHEMERIS_TYPE,CLASSIFICATION_TYPE,NORAD_CAT_ID,ELEMENT_SET_NO,REV_AT_EPOCH,BSTAR,MEAN_MOTION_DOT,MEAN_MOTION_DDOT
INTELSAT 902 (IS-902),2001-039A,2026-06-16T00:47:58.244928,1.00270396,.0004473,6.1143,71.7985,9.6249,144.7701,0,U,26900,999,9068,0,-.287E-5,0
INTELSAT 904 (IS-904),2002-007A,2026-06-16T02:35:54.559104,1.00270758,.0006477,6.9177,69.1973,4.5739,198.0962,0,U,27380,999,5175,0,-.231E-5,0
DIRECTV 5 (TEMPO 1),2002-023A,2026-06-15T15:57:34.689312,1.00271501,.00032434,4.8742,75.3290,23.3873,294.5201,0,U,27426,999,8810,0,-.59E-6,0
INTELSAT 905 (IS-905),2002-027A,2026-06-16T03:45:18.723744,1.00271027,.0003752,6.7514,69.8123,20.3512,93.3755,0,U,27438,999,5135,0,.89E-6,0
GALAXY 3C (G-3C),2002-030A,2026-06-16T04:55:33.150720,1.00271041,.0001551,3.7295,77.9901,32.3050,133.2202,0,U,27445,999,4648,0,-.155E-5,0
INTELSAT 906 (IS-906),2002-041A,2026-06-16T04:12:21.902400,1.00272749,.0004607,5.8002,72.9349,6.1806,312.5671,0,U,27513,999,8701,0,.8E-7,0
GALAXY 13 (HORIZONS-1),2003-044A,2026-06-16T05:25:35.593824,1.00270589,.0002275,1.4169,83.8779,351.6965,120.3111,0,U,27954,999,4656,0,.131E-5,0
INTELSAT 10-02,2004-022A,2026-06-15T16:28:39.209088,1.00272857,.00002983,0.0116,317.0110,255.8494,297.2601,0,U,28358,999,8054,0,-.9E-7,0
DIRECTV 8,2005-019A,2026-06-16T04:09:38.741184,1.00271639,.0002779,0.0180,327.5502,121.9403,118.3123,0,U,28659,999,7706,0,.1E-7,0
GALAXY 28 (G-28),2005-022A,2026-06-16T02:37:09.439392,1.00270791,.0002876,3.2959,78.9474,5.8042,191.8189,0,U,28702,999,5196,0,-.203E-5,0
GALAXY 16 (G-16),2006-023A,2026-06-16T05:00:38.648160,1.00270267,.0002479,0.0085,291.2106,165.3557,144.0627,0,U,29236,999,7296,0,-.127E-5,0
DIRECTV 9S,2006-043A,2026-06-16T05:00:38.648160,1.00270821,.0004864,2.4187,80.9138,12.2601,145.2749,0,U,29494,999,5137,0,-.115E-5,0
GALAXY 17 (G-17),2007-016B,2026-06-15T09:14:01.086720,1.00269116,.00044107,2.9676,79.9207,19.1380,218.0942,0,U,31307,999,6978,0,-.205E-5,0
INTELSAT 11 (IS-11),2007-044B,2026-06-15T18:49:12.330336,0.99051419,.00022785,3.5621,78.6853,91.1152,148.5980,0,U,32253,999,6843,0,-.265E-5,0
HORIZONS-2,2007-063B,2026-06-16T04:44:38.788224,1.00268734,.0003731,2.6000,80.6381,1.6823,179.5089,0,U,32388,999,6780,0,-.255E-5,0
DIRECTV 11,2008-013A,2026-06-14T22:54:02.204352,1.00270145,.00004947,0.0094,269.4466,94.4042,143.7272,0,U,32729,999,4557,0,-.12E-5,0
GALAXY 18 (G-18),2008-024A,2026-06-16T04:23:58.155936,1.00272086,.00027,0.0177,19.3438,65.7120,122.3915,0,U,32951,999,4584,0,.25E-6,0
INTELSAT 25 (IS-25),2008-034A,2026-06-16T00:15:22.321728,0.99035323,.0003241,2.7072,80.3855,60.4094,254.2256,0,U,33153,999,6567,0,-.243E-5,0
GALAXY 19 (G-19),2008-045A,2026-06-16T05:00:38.648160,1.00271236,.0002428,0.0387,264.3579,183.6423,154.6477,0,U,33376,999,6489,0,-.139E-5,0
FM-5,2009-034A,2026-06-14T19:32:31.676064,1.00269724,.00010188,0.0205,292.4193,18.8658,158.8044,0,U,35493,999,4662,0,-.194E-5,0
INTELSAT 14 (IS-14),2009-064A,2026-06-16T02:32:01.101984,1.00270453,.0002173,0.0204,295.7946,142.2349,179.3622,0,U,36097,999,6059,0,-.273E-5,0
INTELSAT 15 (IS-15),2009-067A,2026-06-16T01:26:32.379072,1.00270437,.0002018,0.0149,305.8085,142.0585,283.2481,0,U,36106,999,4121,0,-.185E-5,0
DIRECTV 12,2009-075A,2026-06-15T10:51:38.157408,1.00272221,.00003372,0.0233,154.0951,245.9985,283.8318,0,U,36131,999,4653,0,-.101E-5,0
INTELSAT 16 (IS-16),2010-006A,2026-06-16T05:25:48.385344,1.00269256,.0001941,0.0172,309.0556,156.6790,164.0058,0,U,36397,999,5964,0,-.245E-5,0
XM-5,2010-053A,2026-06-15T00:23:38.718240,1.00271028,.00028901,0.0647,273.1886,289.1857,311.6507,0,U,37185,999,5746,0,-.18E-6,0
INTELSAT 17 (IS-17),2010-065B,2026-06-16T03:03:44.390304,1.00271508,.0002584,0.0074,290.5654,163.7072,282.0576,0,U,37238,999,5323,0,-.2E-7,0
INTELSAT 28 (IS-28),2011-016A,2026-06-16T00:53:13.698240,1.00269898,.0003599,1.8037,82.6352,6.5458,156.7215,0,U,37392,999,5327,0,-.226E-5,0
INTELSAT 18 (IS-18),2011-056A,2026-06-15T23:43:38.628192,1.00271266,.0001541,0.0146,311.6826,131.0190,357.4710,0,U,37834,999,5380,0,.53E-6,0
INTELSAT 22 (IS-22),2012-011A,2026-06-16T04:07:21.669312,1.00272394,.0001574,0.0151,101.2840,359.6025,297.4860,0,U,38098,999,717,0,-.59E-6,0
INTELSAT 19 (IS-19),2012-030A,2026-06-16T00:34:38.714016,1.00270907,.0002807,0.0172,357.3282,96.0863,345.5404,0,U,38356,999,5043,0,-.56E-6,0
INTELSAT 20 (IS-20),2012-043A,2026-06-15T21:56:29.247360,1.00270577,.0001596,0.0034,29.8738,147.3641,124.5854,0,U,38740,999,5073,0,-.23E-6,0
